[{"OBJECT_NAME":"NANOSATC-BR1","OBJECT_ID":"2014-033Q","EPOCH":"2026-03-09T23:35:03.168384","MEAN_MOTION":15.28136801,"ECCENTRICITY":0.00046435,"INCLINATION":98.0845,"RA_OF_ASC_NODE":92.7804,"ARG_OF_PERICENTER":147.6715,"MEAN_ANOMALY":212.4808,"EPHEMERIS_TYPE":0,"CLASSIFICATION_TYPE":"U","NORAD_CAT_ID":40024,"ELEMENT_SET_NO":999,"REV_AT_EPOCH":63881,"BSTAR":0.00074295057,"MEAN_MOTION_DOT":0.00020336,"MEAN_MOTION_DDOT":0},{"OBJECT_NAME":"STARLINK-33972","OBJECT_ID":"2025-095D","EPOCH":"2026-03-09T08:09:54.320256","MEAN_MOTION":15.27582978,"ECCENTRICITY":1.693e-5,"INCLINATION":42.9977,"RA_OF_ASC_NODE":178.2585,"ARG_OF_PERICENTER":193.4438,"MEAN_ANOMALY":166.6409,"EPHEMERIS_TYPE":0,"CLASSIFICATION_TYPE":"U","NORAD_CAT_ID":63893,"ELEMENT_SET_NO":999,"REV_AT_EPOCH":4773,"BSTAR":0.0011528106,"MEAN_MOTION_DOT":0.000316,"MEAN_MOTION_DDOT":0}]
