NANOSATC-BR1            
1 40024U 14033Q   26068.98267556  .00020336  00000+0  74295-3 0  9994
2 40024  98.0845  92.7804 0004644 147.6715 212.4808 15.28136801638811
STARLINK-33972          
1 63893U 25095D   26068.34021204  .00031600  00000+0  11528-2 0  9996
2 63893  42.9977 178.2585 0000169 193.4438 166.6409 15.27582978 47730
